NORAD_CAT_ID,OBJECT_NAME,OBJECT_TYPE,EPOCH,MEAN_MOTION,ECCENTRICITY,INCLINATION,RA_OF_ASC_NODE,ARG_OF_PERICENTER,MEAN_ANOMALY,BSTAR,MEAN_MOTION_DOT,MEAN_MOTION_DDOT,TLE_LINE0,TLE_LINE1,TLE_LINE2,SEMIMAJOR_AXIS,PERIOD,APOGEE,PERIGEE,DECAYED
55275.0,STARLINK-5260,PAYLOAD,2023-09-29 23:05:55,14.98331129,0.0002882,70.0001,112.9616,262.5824,97.5008,-9.0392e-07,-1.04e-06,0.0,0 STARLINK-5260,1 55275U 23010G   23272.96245126 -.00000104  00000-0 -90392-6 0  9997,2 55275  70.0001 112.9616 0002882 262.5824  97.5008 14.98331129 39708,6950.189,96.107,574.057,570.051,0.0
55275.0,STARLINK-5260,PAYLOAD,2023-09-30 07:06:35,14.9834143,0.0003001,69.9999,112.1185,268.4631,91.6184,-0.00022711,-2.803e-05,0.0,0 STARLINK-5260,1 55275U 23010G   23273.29624931 -.00002803  00000-0 -22711-3 0  9994,2 55275  69.9999 112.1185 0003001 268.4631  91.6184 14.98341430 39435,6950.158,96.106,574.108,569.937,0.0
55275.0,STARLINK-5260,PAYLOAD,2023-09-30 23:07:56,14.98320176,0.0002881,69.9998,110.4355,269.2765,90.8064,0.00016665,1.895e-05,0.0,0 STARLINK-5260,1 55275U 23010G   23273.96385340  .00001895  00000-0  16665-3 0  9995,2 55275  69.9998 110.4355 0002881 269.2765  90.8064 14.98320176 39539,6950.223,96.108,574.091,570.086,0.0
55275.0,STARLINK-5260,PAYLOAD,2023-10-01 13:33:09,14.98330625,0.0002973,69.9995,108.9206,270.1614,89.9204,6.9026e-06,-1.1e-07,0.0,0 STARLINK-5260,1 55275U 23010G   23274.56469001 -.00000011  00000-0  69026-5 0  9990,2 55275  69.9995 108.9206 0002973 270.1614  89.9204 14.98330625 39949,6950.191,96.107,574.122,569.99,0.0
55275.0,STARLINK-5260,PAYLOAD,2023-10-01 18:21:33,14.98329763,0.0002996,69.9994,108.4156,270.1137,89.9679,-3.8639e-06,-1.39e-06,0.0,0 STARLINK-5260,1 55275U 23010G   23274.76497071 -.00000139  00000-0 -38639-5 0  9998,2 55275  69.9994 108.4156 0002996 270.1137  89.9679 14.98329763 39657,6950.194,96.107,574.141,569.976,0.0
55275.0,STARLINK-5260,PAYLOAD,2023-10-01 21:33:49,14.98330873,0.0002979,69.9993,108.079,270.1247,89.957,1.0322e-05,3e-07,0.0,0 STARLINK-5260,1 55275U 23010G   23274.89848954  .00000030  00000-0  10322-4 0  9998,2 55275  69.9993 108.0790 0002979 270.1247  89.9570 14.98330873 39990,6950.19,96.107,574.126,569.985,0.0
55275.0,STARLINK-5260,PAYLOAD,2023-10-02 19:59:42,14.98331407,0.0002976,69.9992,105.7223,270.2964,89.7854,3.1842e-05,2.87e-06,0.0,0 STARLINK-5260,1 55275U 23010G   23275.83312795  .00000287  00000-0  31842-4 0  9996,2 55275  69.9992 105.7223 0002976 270.2964  89.7854 14.98331407 39816,6950.189,96.107,574.122,569.985,0.0
55275.0,STARLINK-5260,PAYLOAD,2023-10-03 13:37:11,14.98330546,0.000293,69.9991,103.8707,270.4331,89.6492,-9.5e-06,-2.06e-06,0.0,0 STARLINK-5260,1 55275U 23010G   23276.56748884 -.00000206  00000-0 -95000-5 0  9999,2 55275  69.9991 103.8707 0002930 270.4331  89.6492 14.98330546 40240,6950.191,96.107,574.093,570.02,0.0
55275.0,STARLINK-5260,PAYLOAD,2023-10-03 20:01:43,14.98330408,0.0002913,69.9991,103.1975,268.8165,91.266,-1.8177e-06,-1.15e-06,0.0,0 STARLINK-5260,1 55275U 23010G   23276.83452838 -.00000115  00000-0 -18177-5 0  9999,2 55275  69.9991 103.1975 0002913 268.8165  91.2660 14.98330408 39967,6950.192,96.107,574.081,570.032,0.0
55275.0,STARLINK-5260,PAYLOAD,2023-10-04 13:39:11,14.98331808,0.0002905,69.9991,101.3459,269.3989,90.6837,-8.3883e-06,-1.93e-06,0.0,0 STARLINK-5260,1 55275U 23010G   23277.56888699 -.00000193  00000-0 -83883-5 0  9990,2 55275  69.9991 101.3459 0002905 269.3989  90.6837 14.98331808 40398,6950.187,96.107,574.071,570.033,0.0
55275.0,STARLINK-5260,PAYLOAD,2023-10-04 21:39:52,14.98331804,0.0002921,69.9992,100.5041,269.5345,90.5479,-8.285e-06,-1.92e-06,0.0,0 STARLINK-5260,1 55275U 23010G   23277.90268651 -.00000192  00000-0 -82850-5 0  9990,2 55275  69.9992 100.5041 0002921 269.5345  90.5479 14.98331804 40446,6950.187,96.107,574.082,570.022,0.0
55275.0,STARLINK-5260,PAYLOAD,2023-10-05 13:41:13,14.98327598,0.0002925,69.9992,98.8207,269.6703,90.4121,-1.6445e-05,-2.89e-06,0.0,0 STARLINK-5260,1 55275U 23010G   23278.57028936 -.00000289  00000-0 -16445-4 0  9997,2 55275  69.9992  98.8207 0002925 269.6703  90.4121 14.98327598 40541,6950.2,96.107,574.098,570.032,0.0
55275.0,STARLINK-5260,PAYLOAD,2023-10-05 21:41:53,14.98328625,0.0002968,69.999,97.9784,268.7718,91.3101,-1.5313e-05,-2.76e-06,0.0,0 STARLINK-5260,1 55275U 23010G   23278.90408877 -.00000276  00000-0 -15313-4 0  9999,2 55275  69.9990  97.9784 0002968 268.7718  91.3101 14.98328625 40597,6950.197,96.107,574.125,569.999,0.0
55275.0,STARLINK-5260,PAYLOAD,2023-10-06 13:43:13,14.98330807,0.0002995,69.999,96.295,268.7682,91.3134,6.6631e-07,-8.5e-07,0.0,0 STARLINK-5260,1 55275U 23010G   23279.57168698 -.00000085  00000-0  66631-6 0  9995,2 55275  69.9990  96.2950 0002995 268.7682  91.3134 14.98330807 40696,6950.19,96.107,574.137,569.974,0.0
55275.0,STARLINK-5260,PAYLOAD,2023-10-06 21:43:53,14.9833207,0.0003006,69.9992,95.4539,269.8399,90.2416,1.8028e-05,1.22e-06,0.0,0 STARLINK-5260,1 55275U 23010G   23279.90548554  .00000122  00000-0  18028-4 0  9991,2 55275  69.9992  95.4539 0003006 269.8399  90.2416 14.98332070 40744,6950.186,96.107,574.141,569.962,0.0
55275.0,STARLINK-5260,PAYLOAD,2023-10-07 13:45:14,14.98330081,0.0003033,69.999,93.7705,269.9085,90.1726,4.1624e-05,4.04e-06,0.0,0 STARLINK-5260,1 55275U 23010G   23280.57308562  .00000404  00000-0  41624-4 0  9990,2 55275  69.9990  93.7705 0003033 269.9085  90.1726 14.98330081 40845,6950.193,96.107,574.166,569.95,0.0
55275.0,STARLINK-5260,PAYLOAD,2023-10-07 21:45:54,14.98332245,0.0003063,69.9992,92.9289,270.2742,89.8066,4.0113e-05,3.86e-06,0.0,0 STARLINK-5260,1 55275U 23010G   23280.90688404  .00000386  00000-0  40113-4 0  9994,2 55275  69.9992  92.9289 0003063 270.2742  89.8066 14.98332245 40894,6950.186,96.107,574.18,569.922,0.0
55275.0,STARLINK-5260,PAYLOAD,2023-10-08 13:47:15,14.98330924,0.0003003,69.9995,91.2456,270.6475,89.434,-4.114e-06,-1.42e-06,0.0,0 STARLINK-5260,1 55275U 23010G   23281.57448560 -.00000142  00000-0 -41140-5 0  9999,2 55275  69.9995  91.2456 0003003 270.6475  89.4340 14.98330924 40990,6950.19,96.107,574.142,569.968,0.0
55275.0,STARLINK-5260,PAYLOAD,2023-10-08 20:11:47,14.98332247,0.0002991,69.9995,90.5722,270.958,89.1236,1.1665e-05,4.6e-07,0.0,0 STARLINK-5260,1 55275U 23010G   23281.84152402  .00000046  00000-0  11665-4 0  9995,2 55275  69.9995  90.5722 0002991 270.9580  89.1236 14.98332247 41030,6950.186,96.107,574.13,569.972,0.0
55275.0,STARLINK-5260,PAYLOAD,2023-10-08 21:47:55,14.98332684,0.0002991,69.9995,90.4039,270.9951,89.0865,1.616e-05,1e-06,0.0,0 STARLINK-5260,1 55275U 23010G   23281.90828350  .00000100  00000-0  16160-4 0  9990,2 55275  69.9995  90.4039 0002991 270.9951  89.0865 14.98332684 40729,6950.185,96.107,574.128,569.971,0.0
55275.0,STARLINK-5260,PAYLOAD,2023-10-09 13:49:16,14.98328626,0.0002909,69.9999,88.7209,273.1663,86.9163,-3.6136e-05,-5.24e-06,0.0,0 STARLINK-5260,1 55275U 23010G   23282.57588744 -.00000524  00000-0 -36136-4 0  9991,2 55275  69.9999  88.7209 0002909 273.1663  86.9163 14.98328626 41141,6950.197,96.107,574.084,570.04,0.0
55275.0,STARLINK-5260,PAYLOAD,2023-10-09 20:13:48,14.98328653,0.0002846,70.0,88.048,268.732,91.3513,-1.7213e-05,-2.98e-06,0.0,0 STARLINK-5260,1 55275U 23010G   23282.84292675 -.00000298  00000-0 -17213-4 0  9999,2 55275  70.0000  88.0480 0002846 268.7320  91.3513 14.98328653 41184,6950.197,96.107,574.04,570.084,0.0
55275.0,STARLINK-5260,PAYLOAD,2023-10-10 13:51:17,14.98332374,0.0002872,70.0,86.1965,268.5643,91.5187,2.4166e-05,1.95e-06,0.0,0 STARLINK-5260,1 55275U 23010G   23283.57728245  .00000195  00000-0  24166-4 0  9996,2 55275  70.0000  86.1965 0002872 268.5643  91.5187 14.98332374 41292,6950.186,96.107,574.047,570.054,0.0
55275.0,STARLINK-5260,PAYLOAD,2023-10-10 20:15:49,14.98333636,0.0002885,70.0001,85.5232,269.3821,90.7007,3.5934e-05,3.36e-06,0.0,0 STARLINK-5260,1 55275U 23010G   23283.84432090  .00000336  00000-0  35934-4 0  9998,2 55275  70.0001  85.5232 0002885 269.3821  90.7007 14.98333636 41333,6950.182,96.107,574.052,570.042,0.0
55275.0,STARLINK-5260,PAYLOAD,2023-10-11 13:53:18,14.98326056,0.0002886,70.0001,83.6718,269.6991,90.3837,-9.6805e-06,-2.08e-06,0.0,0 STARLINK-5260,1 55275U 23010G   23284.57868728 -.00000208  00000-0 -96805-5 0  9995,2 55275  70.0001  83.6718 0002886 269.6991  90.3837 14.98326056 41125,6950.205,96.107,574.076,570.064,0.0
55275.0,STARLINK-5260,PAYLOAD,2023-10-12 04:18:30,14.98336527,0.000293,70.0003,82.1557,269.9938,90.0885,-0.00012703,-1.609e-05,0.0,0 STARLINK-5260,1 55275U 23010G   23285.17952358 -.00001609  00000-0 -12703-3 0  9994,2 55275  70.0003  82.1557 0002930 269.9938  90.0885 14.98336527 41210,6950.173,96.107,574.074,570.001,0.0
55275.0,STARLINK-5260,PAYLOAD,2023-10-12 13:55:19,14.98333721,0.0002995,70.0002,81.1457,268.3338,91.7477,3.914e-06,-4.6e-07,0.0,0 STARLINK-5260,1 55275U 23010G   23285.58008175 -.00000046  00000-0  39140-5 0  9997,2 55275  70.0002  81.1457 0002995 268.3338  91.7477 14.98333721 41594,6950.181,96.107,574.128,569.965,0.0
55275.0,STARLINK-5260,PAYLOAD,2023-10-12 20:19:51,14.98336519,0.0002996,70.0003,80.4731,269.4751,90.6065,3.6276e-05,3.4e-06,0.0,0 STARLINK-5260,1 55275U 23010G   23285.84711841  .00000340  00000-0  36276-4 0  9999,2 55275  70.0003  80.4731 0002996 269.4751  90.6065 14.98336519 41638,6950.173,96.107,574.12,569.955,0.0
55275.0,STARLINK-5260,PAYLOAD,2023-10-13 12:21:12,14.98327024,0.0003024,70.0005,78.7901,269.4606,90.6207,2.7916e-05,2.4e-06,0.0,0 STARLINK-5260,1 55275U 23010G   23286.51472398  .00000240  00000-0  27916-4 0  9995,2 55275  70.0005  78.7901 0003024 269.4606  90.6207 14.98327024 41416,6950.202,96.107,574.169,569.965,0.0
55275.0,STARLINK-5260,PAYLOAD,2023-10-13 13:57:20,14.98327025,0.0003027,70.0005,78.6218,269.4531,90.6281,2.7191e-05,2.31e-06,0.0,0 STARLINK-5260,1 55275U 23010G   23286.58148407  .00000231  00000-0  27191-4 0  9998,2 55275  70.0005  78.6218 0003027 269.4531  90.6281 14.98327025 41745,6950.202,96.107,574.171,569.963,0.0
